SENTINEL-6              
1 46984U 20086A   24279.86524921 -.00000015  00000+0  20172-3 0  9999
2 46984  66.0442 341.3938 0007874 269.2633  90.7480 12.80928827181008
